1 43013U 17073A   26204.79514477  .00000037  00000+0  38454-4 0  9994
2 43013  98.7772 143.9337 0001662 114.7848 245.3501 14.19517687449669
